NORAD_CAT_ID,OBJECT_NAME,OBJECT_TYPE,EPOCH,MEAN_MOTION,ECCENTRICITY,INCLINATION,RA_OF_ASC_NODE,ARG_OF_PERICENTER,MEAN_ANOMALY,BSTAR,MEAN_MOTION_DOT,MEAN_MOTION_DDOT,TLE_LINE0,TLE_LINE1,TLE_LINE2,SEMIMAJOR_AXIS,PERIOD,APOGEE,PERIGEE,DECAYED
51756.0,STARLINK-3513,PAYLOAD,2023-03-08 01:35:10,15.08813689,0.0001587,53.2145,196.5452,78.5514,281.5656,0.00061319,9.477e-05,0.0,0 STARLINK-3513,1 51756U 22016AU  23067.06609860  .00009477  00000-0  61319-3 0  9998,2 51756  53.2145 196.5452 0001587  78.5514 281.5656 15.08813689 59072,6917.961,95.439,540.924,538.728,0.0
51756.0,STARLINK-3513,PAYLOAD,2023-03-08 22:15:12,15.08827535,0.0002577,53.2146,192.6801,43.4074,316.7121,0.0033447,0.00053329,0.0,0 STARLINK-3513,1 51756U 22016AU  23067.92723178  .00053329  00000-0  33447-2 0  9997,2 51756  53.2146 192.6801 0002577  43.4074 316.7121 15.08827535 58139,6917.918,95.438,541.566,538.001,0.0
51756.0,STARLINK-3513,PAYLOAD,2023-03-09 07:47:31,15.08845804,0.0001775,53.2143,190.8955,58.6242,301.4923,0.0031796,0.00050688,0.0,0 STARLINK-3513,1 51756U 22016AU  23068.32466839  .00050688  00000-0  31796-2 0  9990,2 51756  53.2143 190.8955 0001775  58.6242 301.4923 15.08845804 59265,6917.863,95.437,540.956,538.5,0.0
51756.0,STARLINK-3513,PAYLOAD,2023-03-09 17:19:49,15.08913475,0.0001934,53.2142,189.1108,59.8276,300.2908,0.0045002,0.00072213,0.0,0 STARLINK-3513,1 51756U 22016AU  23068.72209643  .00072213  00000-0  45002-2 0  9995,2 51756  53.2142 189.1108 0001934  59.8276 300.2908 15.08913475 59329,6917.656,95.433,540.859,538.183,0.0
51756.0,STARLINK-3513,PAYLOAD,2023-03-09 20:30:34,15.08929419,0.0002029,53.2146,188.5167,59.884,300.2353,0.0040227,0.00064478,0.0,0 STARLINK-3513,1 51756U 22016AU  23068.85456960  .00064478  00000-0  40227-2 0  9993,2 51756  53.2146 188.5167 0002029  59.8840 300.2353 15.08929419 58276,6917.607,95.432,540.876,538.069,0.0
51756.0,STARLINK-3513,PAYLOAD,2023-03-10 01:16:45,15.08816449,0.000211,53.2144,187.6245,79.2727,280.8503,0.00029762,4.449e-05,0.0,0 STARLINK-3513,1 51756U 22016AU  23069.05329909  .00004449  00000-0  29762-3 0  9992,2 51756  53.2144 187.6245 0002110  79.2727 280.8503 15.08816449 59372,6917.952,95.439,541.277,538.358,0.0
51756.0,STARLINK-3513,PAYLOAD,2023-03-10 07:38:17,15.08844229,0.000141,53.2146,186.435,70.9884,289.126,-1.9421e-05,-5.97e-06,0.0,0 STARLINK-3513,1 51756U 22016AU  23069.31825693 -.00000597  00000-0 -19421-4 0  9996,2 51756  53.2146 186.4350 0001410  70.9884 289.1260 15.08844229 59416,6917.867,95.437,540.708,538.757,0.0
51756.0,STARLINK-3513,PAYLOAD,2023-03-10 17:10:36,15.08867278,0.000144,53.2143,184.6505,73.5198,286.5953,0.0034403,0.00054932,0.0,0 STARLINK-3513,1 51756U 22016AU  23069.71569790  .00054932  00000-0  34403-2 0  9998,2 51756  53.2143 184.6505 0001440  73.5198 286.5953 15.08867278 59470,6917.797,95.436,540.658,538.666,0.0
51756.0,STARLINK-3513,PAYLOAD,2023-03-10 21:56:45,15.08863101,0.0001286,53.2143,183.7585,77.5447,282.5689,0.0025302,0.00040236,0.0,0 STARLINK-3513,1 51756U 22016AU  23069.91441695  .00040236  00000-0  25302-2 0  9993,2 51756  53.2143 183.7585 0001286  77.5447 282.5689 15.08863101 58435,6917.81,95.436,540.564,538.785,0.0
51756.0,STARLINK-3513,PAYLOAD,2023-03-11 01:07:32,15.08814237,0.0001602,53.2144,183.1643,87.3759,272.7416,0.0013294,0.00020918,0.0,0 STARLINK-3513,1 51756U 22016AU  23070.04690254  .00020918  00000-0  13294-2 0  9998,2 51756  53.2144 183.1643 0001602  87.3759 272.7416 15.08814237 59528,6917.959,95.439,540.932,538.716,0.0
51756.0,STARLINK-3513,PAYLOAD,2023-03-11 10:39:51,15.0883917,0.0001374,53.2147,181.3803,86.9516,273.1634,0.0037711,0.00060241,0.0,0 STARLINK-3513,1 51756U 22016AU  23070.44434624  .00060241  00000-0  37711-2 0  9992,2 51756  53.2147 181.3803 0001374  86.9516 273.1634 15.08839170 59587,6917.883,95.438,540.698,538.797,0.0
51756.0,STARLINK-3513,PAYLOAD,2023-03-11 12:15:14,15.0884416,0.0001355,53.2148,181.083,87.6427,272.472,0.0032565,0.00051927,0.0,0 STARLINK-3513,1 51756U 22016AU  23070.51058601  .00051927  00000-0  32565-2 0  9990,2 51756  53.2148 181.0830 0001355  87.6427 272.4720 15.08844160 58529,6917.868,95.437,540.67,538.795,0.0
51756.0,STARLINK-3513,PAYLOAD,2023-03-11 20:12:09,15.08881577,0.0001388,53.2147,179.596,86.5315,273.5836,0.003192,0.00050938,0.0,0 STARLINK-3513,1 51756U 22016AU  23070.84178061  .00050938  00000-0  31920-2 0  9994,2 51756  53.2147 179.5960 0001388  86.5315 273.5836 15.08881577 58572,6917.753,95.435,540.578,538.658,0.0
51756.0,STARLINK-3513,PAYLOAD,2023-03-12 07:19:52,15.08837185,0.0001462,53.2145,177.5142,108.0358,252.0794,0.00085888,0.00013406,0.0,0 STARLINK-3513,1 51756U 22016AU  23071.30547005  .00013406  00000-0  85888-3 0  9996,2 51756  53.2145 177.5142 0001462 108.0358 252.0794 15.08837185 59718,6917.889,95.438,540.765,538.743,0.0
51756.0,STARLINK-3513,PAYLOAD,2023-03-12 12:06:02,15.08838642,0.0001431,53.2145,176.6221,107.9466,252.1682,0.0034592,0.00055194,0.0,0 STARLINK-3513,1 51756U 22016AU  23071.50419373  .00055194  00000-0  34592-2 0  9999,2 51756  53.2145 176.6221 0001431 107.9466 252.1682 15.08838642 58670,6917.885,95.438,540.739,538.76,0.0
51756.0,STARLINK-3513,PAYLOAD,2023-03-12 21:38:21,15.08841901,0.0001274,53.2144,174.8381,115.6705,244.4419,0.0011805,0.00018551,0.0,0 STARLINK-3513,1 51756U 22016AU  23071.90163252  .00018551  00000-0  11805-2 0  9993,2 51756  53.2144 174.8381 0001274 115.6705 244.4419 15.08841901 58734,6917.875,95.437,540.621,538.858,0.0
51756.0,STARLINK-3513,PAYLOAD,2023-03-13 03:59:53,15.08844198,0.0001191,53.2144,173.6491,102.4722,257.6404,0.0024501,0.00038925,0.0,0 STARLINK-3513,1 51756U 22016AU  23072.16659228  .00038925  00000-0  24501-2 0  9999,2 51756  53.2144 173.6491 0001191 102.4722 257.6404 15.08844198 59848,6917.868,95.437,540.556,538.909,0.0
51756.0,STARLINK-3513,PAYLOAD,2023-03-13 13:32:11,15.08873126,0.0001095,53.2143,171.8641,106.6456,253.4656,0.0025485,0.00040542,0.0,0 STARLINK-3513,1 51756U 22016AU  23072.56402690  .00040542  00000-0  25485-2 0  9992,2 51756  53.2143 171.8641 0001095 106.6456 253.4656 15.08873126 58831,6917.779,95.435,540.402,538.887,0.0
51756.0,STARLINK-3513,PAYLOAD,2023-03-13 21:29:07,15.08837038,0.0001351,53.2142,170.3771,74.4404,285.6737,-0.00041637,-6.908e-05,0.0,0 STARLINK-3513,1 51756U 22016AU  23072.89522899 -.00006908  00000-0 -41637-3 0  9990,2 51756  53.2142 170.3771 0001351  74.4404 285.6737 15.08837038 59951,6917.889,95.438,540.689,538.82,0.0
51756.0,STARLINK-3513,PAYLOAD,2023-03-14 13:22:59,15.08861742,0.0001233,53.2141,167.4035,124.2865,235.8244,0.0024947,0.00039663,0.0,0 STARLINK-3513,1 51756U 22016AU  23073.55762776  .00039663  00000-0  24947-2 0  9990,2 51756  53.2141 167.4035 0001233 124.2865 235.8244 15.08861742 60056,6917.814,95.436,540.532,538.826,0.0
51756.0,STARLINK-3513,PAYLOAD,2023-03-14 16:33:45,15.0887085,0.0001187,53.214,166.8089,125.0192,235.0911,0.0030416,0.00048493,0.0,0 STARLINK-3513,1 51756U 22016AU  23073.69010652  .00048493  00000-0  30416-2 0  9993,2 51756  53.2140 166.8089 0001187 125.0192 235.0911 15.08870850 59003,6917.786,95.436,540.472,538.83,0.0
51756.0,STARLINK-3513,PAYLOAD,2023-03-15 11:38:21,15.08896821,0.0003188,53.2139,163.2398,158.7615,201.351,0.0025444,0.00040505,0.0,0 STARLINK-3513,1 51756U 22016AU  23074.48497021  .00040505  00000-0  25444-2 0  9991,2 51756  53.2139 163.2398 0003188 158.7615 201.3510 15.08896821 60190,6917.707,95.434,541.777,537.366,0.0
51756.0,STARLINK-3513,PAYLOAD,2023-03-15 22:46:03,15.08865878,0.000176,53.2138,161.1583,75.3585,284.7602,0.001239,0.000195,0.0,0 STARLINK-3513,1 51756U 22016AU  23074.94865405  .00019500  00000-0  12390-2 0  9994,2 51756  53.2138 161.1583 0001760  75.3585 284.7602 15.08865878 60269,6917.801,95.436,540.884,538.449,0.0
51756.0,STARLINK-3513,PAYLOAD,2023-03-16 11:29:09,15.08833503,0.0001359,53.2135,158.7799,87.3934,272.7213,0.0018799,0.00029752,0.0,0 STARLINK-3513,1 51756U 22016AU  23075.47857867  .00029752  00000-0  18799-2 0  9995,2 51756  53.2135 158.7799 0001359  87.3934 272.7213 15.08833503 60346,6917.9,95.438,540.705,538.825,0.0
51756.0,STARLINK-3513,PAYLOAD,2023-03-16 14:39:55,15.08843248,0.0001468,53.2136,158.1853,86.3968,273.7192,0.0022994,0.000365,0.0,0 STARLINK-3513,1 51756U 22016AU  23075.61105922  .00036500  00000-0  22994-2 0  9990,2 51756  53.2136 158.1853 0001468  86.3968 273.7192 15.08843248 59295,6917.87,95.437,540.751,538.72,0.0
51756.0,STARLINK-3513,PAYLOAD,2023-03-17 11:19:58,15.08816273,0.0001404,53.214,154.3192,102.3328,257.7821,0.0014782,0.00023301,0.0,0 STARLINK-3513,1 51756U 22016AU  23076.47220151  .00023301  00000-0  14782-2 0  9998,2 51756  53.2140 154.3192 0001404 102.3328 257.7821 15.08816273 60496,6917.953,95.439,540.789,538.847,0.0
51756.0,STARLINK-3513,PAYLOAD,2023-03-18 14:21:31,15.08880842,0.0001402,53.2141,149.265,95.3527,264.7625,0.0018059,0.00028602,0.0,0 STARLINK-3513,1 51756U 22016AU  23077.59827555  .00028602  00000-0  18059-2 0  9993,2 51756  53.2141 149.2650 0001402  95.3527 264.7625 15.08880842 60661,6917.756,95.435,540.59,538.651,0.0
51756.0,STARLINK-3513,PAYLOAD,2023-03-18 22:18:26,15.08854109,0.0001597,53.2141,147.778,89.8383,270.2792,0.0003504,5.295e-05,0.0,0 STARLINK-3513,1 51756U 22016AU  23077.92947713  .00005295  00000-0  35040-3 0  9992,2 51756  53.2141 147.7780 0001597  89.8383 270.2792 15.08854109 59641,6917.837,95.437,540.807,538.597,0.0
51756.0,STARLINK-3513,PAYLOAD,2023-03-19 11:01:31,15.08859977,0.0001387,53.2148,145.3988,96.6003,263.5148,0.0013,0.00020473,0.0,0 STARLINK-3513,1 51756U 22016AU  23078.45939209  .00020473  00000-0  13000-2 0  9998,2 51756  53.2148 145.3988 0001387  96.6003 263.5148 15.08859977 59721,6917.819,95.436,540.644,538.725,0.0
51756.0,STARLINK-3513,PAYLOAD,2023-03-19 14:12:17,15.08867823,0.0001392,53.2151,144.8041,93.7223,266.3928,0.0015457,0.00024416,0.0,0 STARLINK-3513,1 51756U 22016AU  23078.59186974  .00024416  00000-0  15457-2 0  9995,2 51756  53.2151 144.8041 0001392  93.7223 266.3928 15.08867823 59745,6917.795,95.436,540.623,538.697,0.0
